MONOLITH                
1 49052U 21068A   26068.54548855  .00008348  00000+0  53656-3 0  9993
2 49052  37.0220 141.2957 0002679 131.6464 228.4511 15.08010119252226
STARLINK-3209           
1 49752U 21115AE  26068.47828917 -.00000897  00000+0 -38247-4 0  9998
2 49752  53.2181 140.0795 0001492  97.8265 262.2897 15.08837439235642
